{"type": "FeatureCollection", "features": [ {"type": "Feature", "properties": {"norad_id": 66717, "name": "FLOCK 4H-14", "group": "last-30-days", "lat": 57.0994548644991, "lon": 60.87577452190432, "alt_km": 504.8132257665329, "timestamp": "2025-12-26T23:26:40.920670+00:00", "meta": {"OBJECT_NAME": "FLOCK 4H-14", "OBJECT_ID": "2025-276BD", "EPOCH": "2025-12-26T15:16:57.575136", "MEAN_MOTION": 15.18396708, "ECCENTRICITY": 0.0001777, "INCLINATION": 97.4407, "RA_OF_ASC_NODE": 72.1959, "ARG_OF_PERICENTER": 129.3522, "MEAN_ANOMALY": 230.7869, "EPHEMERIS_TYPE": 0, "CLASSIFICATION_TYPE": "U", "NORAD_CAT_ID": 66717, "ELEMENT_SET_NO": 999, "REV_AT_EPOCH": 348, "BSTAR": 0.00034777, "MEAN_MOTION_DOT": 7.087e-05, "MEAN_MOTION_DDOT": 0}, "tle": {"line1": "1 66717U 25276BD  25360.63677749  .00007087  00000+0  34777-3 0  9996", "line2": "2 66717  97.4407  72.1959 0001777 129.3522 230.7869 15.18396708  3487"}}, "geometry": {"type": "Point", "coordinates": [60.87577452190432, 57.0994548644991]}}, {"type": "Feature", "properties": {"norad_id": 66718, "name": "FLOCK 4H-15", "group": "last-30-days", "lat": -61.063566083139975, "lon": 86.15887402663977, "alt_km": 520.1814076549745, "timestamp": "2025-12-26T23:26:40.920684+00:00", "meta": {"OBJECT_NAME": "FLOCK 4H-15", "OBJECT_ID": "2025-276BE", "EPOCH": "2025-12-26T15:48:10.048896", "MEAN_MOTION": 15.17154123, "ECCENTRICITY": 0.0003159, "INCLINATION": 97.4416, "RA_OF_ASC_NODE": 72.1709, "ARG_OF_PERICENTER": 250.499, "MEAN_ANOMALY": 109.5902, "EPHEMERIS_TYPE": 0, "CLASSIFICATION_TYPE": "U", "NORAD_CAT_ID": 66718, "ELEMENT_SET_NO": 999, "REV_AT_EPOCH": 423, "BSTAR": 0.00051031, "MEAN_MOTION_DOT": 0.00010069, "MEAN_MOTION_DDOT": 0}, "tle": {"line1": "1 66718U 25276BE  25360.65844964  .00010069  00000+0  51031-3 0  9990", "line2": "2 66718  97.4416  72.1709 0003159 250.4990 109.5902 15.17154123  4239"}}, "geometry": {"type": "Point", "coordinates": [86.15887402663977, -61.063566083139975]}}, {"type": "Feature", "properties": {"norad_id": 66719, "name": "FLOCK 4H-16", "group": "last-30-days", "lat": -50.49249125988351, "lon": 81.61659128138703, "alt_km": 520.5940104136698, "timestamp": "2025-12-26T23:26:40.920695+00:00", "meta": {"OBJECT_NAME": "FLOCK 4H-16", "OBJECT_ID": "2025-276BF", "EPOCH": "2025-12-26T18:00:02.998944", "MEAN_MOTION": 15.17287765, "ECCENTRICITY": 0.0003424, "INCLINATION": 97.4432, "RA_OF_ASC_NODE": 72.2709, "ARG_OF_PERICENTER": 230.4796, "MEAN_ANOMALY": 280.2842, "EPHEMERIS_TYPE": 0, "CLASSIFICATION_TYPE": "U", "NORAD_CAT_ID": 66719, "ELEMENT_SET_NO": 999, "REV_AT_EPOCH": 367, "BSTAR": -0.0010767, "MEAN_MOTION_DOT": -0.00021438, "MEAN_MOTION_DDOT": 0}, "tle": {"line1": "1 66719U 25276BF  25360.75003471 -.00021438  00000+0 -10767-2 0  9996", "line2": "2 66719  97.4432  72.2709 0003424 230.4796 280.2842 15.17287765  3672"}}, "geometry": {"type": "Point", "coordinates": [81.61659128138703, -50.49249125988351]}}, {"type": "Feature", "properties": {"norad_id": 66720, "name": "FLOCK 4H-17", "group": "last-30-days", "lat": 31.188007626751187, "lon": 67.99284003580624, "alt_km": 512.8878219498647, "timestamp": "2025-12-26T23:26:40.920706+00:00", "meta": {"OBJECT_NAME": "FLOCK 4H-17", "OBJECT_ID": "2025-276BG", "EPOCH": "2025-12-26T16:58:41.582208", "MEAN_MOTION": 15.18021557, "ECCENTRICITY": 0.000485, "INCLINATION": 97.4432, "RA_OF_ASC_NODE": 72.2669, "ARG_OF_PERICENTER": 174.6666, "MEAN_ANOMALY": 185.462, "EPHEMERIS_TYPE": 0, "CLASSIFICATION_TYPE": "U", "NORAD_CAT_ID": 66720, "ELEMENT_SET_NO": 999, "REV_AT_EPOCH": 424, "BSTAR": -0.0023229, "MEAN_MOTION_DOT": -0.00047, "MEAN_MOTION_DDOT": 0}, "tle": {"line1": "1 66720U 25276BG  25360.70742572 -.00047000  00000+0 -23229-2 0  9995", "line2": "2 66720  97.4432  72.2669 0004850 174.6666 185.4620 15.18021557  4248"}}, "geometry": {"type": "Point", "coordinates": [67.99284003580624, 31.188007626751187]}}, {"type": "Feature", "properties": {"norad_id": 66721, "name": "FLOCK 4H-18", "group": "last-30-days", "lat": -57.72627373752673, "lon": 84.40605324997676, "alt_km": 520.2065810717659, "timestamp": "2025-12-26T23:26:40.920717+00:00", "meta": {"OBJECT_NAME": "FLOCK 4H-18", "OBJECT_ID": "2025-276BH", "EPOCH": "2025-12-26T15:47:15.730080", "MEAN_MOTION": 15.17181784, "ECCENTRICITY": 0.0002423, "INCLINATION": 97.4376, "RA_OF_ASC_NODE": 72.1548, "ARG_OF_PERICENTER": 262.5456, "MEAN_ANOMALY": 97.5502, "EPHEMERIS_TYPE": 0, "CLASSIFICATION_TYPE": "U", "NORAD_CAT_ID": 66721, "ELEMENT_SET_NO": 999, "REV_AT_EPOCH": 423, "BSTAR": 0.0003098, "MEAN_MOTION_DOT": 6.088e-05, "MEAN_MOTION_DDOT": 0}, "tle": {"line1": "1 66721U 25276BH  25360.65782095  .00006088  00000+0  30980-3 0  9996", "line2": "2 66721  97.4376  72.1548 0002423 262.5456  97.5502 15.17181784  4238"}}, "geometry": {"type": "Point", "coordinates": [84.40605324997676, -57.72627373752673]}}, {"type": "Feature", "properties": {"norad_id": 66722, "name": "FLOCK 4H-19", "group": "last-30-days", "lat": 49.60935197337347, "lon": 63.68314189209857, "alt_km": 506.4636112114531, "timestamp": "2025-12-26T23:26:40.920728+00:00", "meta": {"OBJECT_NAME": "FLOCK 4H-19", "OBJECT_ID": "2025-276BJ", "EPOCH": "2025-12-26T15:18:57.766176", "MEAN_MOTION": 15.18349081, "ECCENTRICITY": 0.0002586, "INCLINATION": 97.4379, "RA_OF_ASC_NODE": 72.183, "ARG_OF_PERICENTER": 145.5979, "MEAN_ANOMALY": 214.5423, "EPHEMERIS_TYPE": 0, "CLASSIFICATION_TYPE": "U", "NORAD_CAT_ID": 66722, "ELEMENT_SET_NO": 999, "REV_AT_EPOCH": 352, "BSTAR": 0.00082313, "MEAN_MOTION_DOT": 0.00016864, "MEAN_MOTION_DDOT": 0}, "tle": {"line1": "1 66722U 25276BJ  25360.63816859  .00016864  00000+0  82313-3 0  9991", "line2": "2 66722  97.4379  72.1830 0002586 145.5979 214.5423 15.18349081  3527"}}, "geometry": {"type": "Point", "coordinates": [63.68314189209857, 49.60935197337347]}}, {"type": "Feature", "properties": {"norad_id": 66723, "name": "FLOCK 4H-20", "group": "last-30-days", "lat": 53.561335444101616, "lon": 62.33635538570018, "alt_km": 506.30611624142875, "timestamp": "2025-12-26T23:26:40.920754+00:00", "meta": {"OBJECT_NAME": "FLOCK 4H-20", "OBJECT_ID": "2025-276BK", "EPOCH": "2025-12-26T15:17:54.076416", "MEAN_MOTION": 15.18366093, "ECCENTRICITY": 0.0003115, "INCLINATION": 97.4414, "RA_OF_ASC_NODE": 72.1993, "ARG_OF_PERICENTER": 160.1629, "MEAN_ANOMALY": 199.9726, "EPHEMERIS_TYPE": 0, "CLASSIFICATION_TYPE": "U", "NORAD_CAT_ID": 66723, "ELEMENT_SET_NO": 999, "REV_AT_EPOCH": 348, "BSTAR": 0.00047225, "MEAN_MOTION_DOT": 9.642e-05, "MEAN_MOTION_DDOT": 0}, "tle": {"line1": "1 66723U 25276BK  25360.63743144  .00009642  00000+0  47225-3 0  9997", "line2": "2 66723  97.4414  72.1993 0003115 160.1629 199.9726 15.18366093  3481"}}, "geometry": {"type": "Point", "coordinates": [62.33635538570018, 53.561335444101616]}}, {"type": "Feature", "properties": {"norad_id": 66724, "name": "FLOCK 4H-21", "group": "last-30-days", "lat": 57.02528943161255, "lon": 60.902193380599506, "alt_km": 506.0735226017796, "timestamp": "2025-12-26T23:26:40.920766+00:00", "meta": {"OBJECT_NAME": "FLOCK 4H-21", "OBJECT_ID": "2025-276BL", "EPOCH": "2025-12-26T10:32:15.855360", "MEAN_MOTION": 15.18368984, "ECCENTRICITY": 0.0002071, "INCLINATION": 97.4381, "RA_OF_ASC_NODE": 71.9904, "ARG_OF_PERICENTER": 178.7991, "MEAN_ANOMALY": 181.3249, "EPHEMERIS_TYPE": 0, "CLASSIFICATION_TYPE": "U", "NORAD_CAT_ID": 66724, "ELEMENT_SET_NO": 999, "REV_AT_EPOCH": 345, "BSTAR": -0.00073348, "MEAN_MOTION_DOT": -0.00015096, "MEAN_MOTION_DDOT": 0}, "tle": {"line1": "1 66724U 25276BL  25360.43907240 -.00015096  00000+0 -73348-3 0  9992", "line2": "2 66724  97.4381  71.9904 0002071 178.7991 181.3249 15.18368984  3454"}}, "geometry": {"type": "Point", "coordinates": [60.902193380599506, 57.02528943161255]}}, {"type": "Feature", "properties": {"norad_id": 66725, "name": "FLOCK 4H-22", "group": "last-30-days", "lat": -27.616962825300885, "lon": 76.3957357801176, "alt_km": 518.7299837885976, "timestamp": "2025-12-26T23:26:40.920779+00:00", "meta": {"OBJECT_NAME": "FLOCK 4H-22", "OBJECT_ID": "2025-276BM", "EPOCH": "2025-12-26T17:14:13.928064", "MEAN_MOTION": 15.17540423, "ECCENTRICITY": 0.000149, "INCLINATION": 97.437, "RA_OF_ASC_NODE": 72.2232, "ARG_OF_PERICENTER": 266.4781, "MEAN_ANOMALY": 93.6282, "EPHEMERIS_TYPE": 0, "CLASSIFICATION_TYPE": "U", "NORAD_CAT_ID": 66725, "ELEMENT_SET_NO": 999, "REV_AT_EPOCH": 424, "BSTAR": 0.00029173, "MEAN_MOTION_DOT": 5.788e-05, "MEAN_MOTION_DDOT": 0}, "tle": {"line1": "1 66725U 25276BM  25360.71821676  .00005788  00000+0  29173-3 0  9994", "line2": "2 66725  97.4370  72.2232 0001490 266.4781  93.6282 15.17540423  4246"}}, "geometry": {"type": "Point", "coordinates": [76.3957357801176, -27.616962825300885]}}, {"type": "Feature", "properties": {"norad_id": 66726, "name": "FLOCK 4H-23", "group": "last-30-days", "lat": -50.689887103604455, "lon": 81.68019335110722, "alt_km": 520.2234718055197, "timestamp": "2025-12-26T23:26:40.920793+00:00", "meta": {"OBJECT_NAME": "FLOCK 4H-23", "OBJECT_ID": "2025-276BN", "EPOCH": "2025-12-26T15:45:24.250752", "MEAN_MOTION": 15.17319733, "ECCENTRICITY": 0.0002119, "INCLINATION": 97.4424, "RA_OF_ASC_NODE": 72.1788, "ARG_OF_PERICENTER": 243.2327, "MEAN_ANOMALY": 116.869, "EPHEMERIS_TYPE": 0, "CLASSIFICATION_TYPE": "U", "NORAD_CAT_ID": 66726, "ELEMENT_SET_NO": 999, "REV_AT_EPOCH": 423, "BSTAR": 0.0027054, "MEAN_MOTION_DOT": 0.0005424, "MEAN_MOTION_DDOT": 0}, "tle": {"line1": "1 66726U 25276BN  25360.65653068  .00054240  00000+0  27054-2 0  9998", "line2": "2 66726  97.4424  72.1788 0002119 243.2327 116.8690 15.17319733  4238"}}, "geometry": {"type": "Point", "coordinates": [81.68019335110722, -50.689887103604455]}}]}